CCSDS_OMM_VERS,COMMENT,CREATION_DATE,ORIGINATOR,OBJECT_NAME,OBJECT_ID,CENTER_NAME,REF_FRAME,TIME_SYSTEM,MEAN_ELEMENT_THEORY,EPOCH,MEAN_MOTION,ECCENTRICITY,INCLINATION,RA_OF_ASC_NODE,ARG_OF_PERICENTER,MEAN_ANOMALY,EPHEMERIS_TYPE,CLASSIFICATION_TYPE,NORAD_CAT_ID,ELEMENT_SET_NO,REV_AT_EPOCH,BSTAR,MEAN_MOTION_DOT,MEAN_MOTION_DDOT,SEMIMAJOR_AXIS,PERIOD,APOAPSIS,PERIAPSIS,OBJECT_TYPE,RCS_SIZE,COUNTRY_CODE,LAUNCH_DATE,SITE,DECAY_DATE,FILE,GP_ID,TLE_LINE0,TLE_LINE1,TLE_LINE2
2,GENERATED VIA SPACE-TRACK.ORG API,2023-06-22T23:22:29,18 SPCS,KSF3-C,2023-001K,EARTH,TEME,UTC,SGP4,2023-06-21T18:58:19.070400,15.17002746,0.0009822,97.4759,232.2767,7.6369,352.5012,0,U,55018,999,2576,0.00062098,0.0001223,0,6893.042,94.924,521.677,508.137,PAYLOAD,MEDIUM,LUXE,2023-01-03,AFETR,,3940263,234491212,0 KSF3-C,1 55018U 23001K   23172.79049850  .00012230  00000-0  62098-3 0  9998,2 55018  97.4759 232.2767 0009822   7.6369 352.5012 15.17002746 25764
2,GENERATED VIA SPACE-TRACK.ORG API,2023-06-22T06:46:14,18 SPCS,KSF3-C,2023-001K,EARTH,TEME,UTC,SGP4,2023-06-22T02:53:14.275968,15.17012453,0.0009795,97.4759,232.6021,6.4788,353.657,0,U,55018,999,2581,0.00067055,0.00013217,0,6893.013,94.923,521.629,508.126,PAYLOAD,MEDIUM,LUXE,2023-01-03,AFETR,,3939463,234446660,0 KSF3-C,1 55018U 23001K   23173.12030412  .00013217  00000-0  67055-3 0  9994,2 55018  97.4759 232.6021 0009795   6.4788 353.6570 15.17012453 25815
2,GENERATED VIA SPACE-TRACK.ORG API,2023-06-22T14:26:13,18 SPCS,KSF3-C,2023-001K,EARTH,TEME,UTC,SGP4,2023-06-22T09:13:10.305984,15.17018847,0.000979,97.4759,232.8625,5.5616,354.5724,0,U,55018,999,2585,0.00065847,0.00012979,0,6892.993,94.923,521.607,508.11,PAYLOAD,MEDIUM,LUXE,2023-01-03,AFETR,,3939768,234453350,0 KSF3-C,1 55018U 23001K   23173.38414706  .00012979  00000-0  65847-3 0  9995,2 55018  97.4759 232.8625 0009790   5.5616 354.5724 15.17018847 25850
2,GENERATED VIA SPACE-TRACK.ORG API,2023-06-22T22:56:13,18 SPCS,KSF3-C,2023-001K,EARTH,TEME,UTC,SGP4,2023-06-22T17:08:05.203968,15.17029218,0.0009755,97.4759,233.1878,4.4048,355.727,0,U,55018,999,2590,0.00071113,0.00014029,0,6892.962,94.922,521.551,508.103,PAYLOAD,MEDIUM,LUXE,2023-01-03,AFETR,,3940029,234460762,0 KSF3-C,1 55018U 23001K   23173.71394912  .00014029  00000-0  71113-3 0  9999,2 55018  97.4759 233.1878 0009755   4.4048 355.7270 15.17029218 25901
2,GENERATED VIA SPACE-TRACK.ORG API,2023-06-23T06:26:13,18 SPCS,KSF3-C,2023-001K,EARTH,TEME,UTC,SGP4,2023-06-23T02:37:58.834272,15.17041068,0.0009694,97.476,233.5783,3.0605,357.0686,0,U,55018,999,2596,0.00073957,0.00014598,0,6892.926,94.922,521.473,508.109,PAYLOAD,MEDIUM,LUXE,2023-01-03,AFETR,,3940322,234494358,0 KSF3-C,1 55018U 23001K   23174.10970873  .00014598  00000-0  73957-3 0  9998,2 55018  97.4760 233.5783 0009694   3.0605 357.0686 15.17041068 25967
2,GENERATED VIA SPACE-TRACK.ORG API,2023-06-23T14:26:13,18 SPCS,KSF3-C,2023-001K,EARTH,TEME,UTC,SGP4,2023-06-23T10:32:53.343456,15.17048829,0.0009681,97.476,233.9037,1.9968,358.1302,0,U,55018,999,2601,0.00069194,0.00013655,0,6892.902,94.921,521.441,508.094,PAYLOAD,MEDIUM,LUXE,2023-01-03,AFETR,,3940584,234500036,0 KSF3-C,1 55018U 23001K   23174.43950629  .00013655  00000-0  69194-3 0  9992,2 55018  97.4760 233.9037 0009681   1.9968 358.1302 15.17048829 26014
2,GENERATED VIA SPACE-TRACK.ORG API,2023-06-23T22:26:13,18 SPCS,KSF3-C,2023-001K,EARTH,TEME,UTC,SGP4,2023-06-23T16:52:48.806688,15.17057601,0.0009654,97.4761,234.1641,1.0841,359.0411,0,U,55018,999,2605,0.00071596,0.00014136,0,6892.876,94.921,521.395,508.087,PAYLOAD,MEDIUM,LUXE,2023-01-03,AFETR,,3940885,234506935,0 KSF3-C,1 55018U 23001K   23174.70334267  .00014136  00000-0  71596-3 0  9990,2 55018  97.4761 234.1641 0009654   1.0841 359.0411 15.17057601 26053
2,GENERATED VIA SPACE-TRACK.ORG API,2023-06-24T06:26:13,18 SPCS,KSF3-C,2023-001K,EARTH,TEME,UTC,SGP4,2023-06-24T02:22:41.808864,15.17069022,0.00096,97.4761,234.5546,359.8544,0.2685,0,U,55018,999,2611,0.00071983,0.00014217,0,6892.841,94.92,521.323,508.089,PAYLOAD,MEDIUM,LUXE,2023-01-03,AFETR,,3941136,234513303,0 KSF3-C,1 55018U 23001K   23175.09909501  .00014217  00000-0  71983-3 0  9992,2 55018  97.4761 234.5546 0009600 359.8544   0.2685 15.17069022 26111
2,GENERATED VIA SPACE-TRACK.ORG API,2023-06-24T14:36:13,18 SPCS,KSF3-C,2023-001K,EARTH,TEME,UTC,SGP4,2023-06-24T07:07:38.214048,15.17073511,0.0009584,97.4761,234.7498,359.1679,0.9537,0,U,55018,999,2614,0.00068151,0.00013457,0,6892.828,94.92,521.299,508.087,PAYLOAD,MEDIUM,LUXE,2023-01-03,AFETR,,3941493,234521536,0 KSF3-C,1 55018U 23001K   23175.29697007  .00013457  00000-0  68151-3 0  9997,2 55018  97.4761 234.7498 0009584 359.1679   0.9537 15.17073511 26146
2,GENERATED VIA SPACE-TRACK.ORG API,2023-06-24T22:26:13,18 SPCS,KSF3-C,2023-001K,EARTH,TEME,UTC,SGP4,2023-06-24T16:37:30.833472,15.17085921,0.0009541,97.4761,235.1403,357.8076,2.3114,0,U,55018,999,2620,0.00072468,0.0001432,0,6892.79,94.919,521.232,508.079,PAYLOAD,MEDIUM,LUXE,2023-01-03,AFETR,,3941749,234528000,0 KSF3-C,1 55018U 23001K   23175.69271798  .00014320  00000-0  72468-3 0  9992,2 55018  97.4761 235.1403 0009541 357.8076   2.3114 15.17085921 26208
2,GENERATED VIA SPACE-TRACK.ORG API,2023-06-25T06:36:13,18 SPCS,KSF3-C,2023-001K,EARTH,TEME,UTC,SGP4,2023-06-25T03:42:21.888000,15.17100919,0.0009481,97.4761,235.5959,356.1254,3.9905,0,U,55018,999,2627,0.00079176,0.00015661,0,6892.745,94.918,521.145,508.075,PAYLOAD,MEDIUM,LUXE,2023-01-03,AFETR,,3942039,234534572,0 KSF3-C,1 55018U 23001K   23176.15442000  .00015661  00000-0  79176-3 0  9992,2 55018  97.4761 235.5959 0009481 356.1254   3.9905 15.17100919 26278
2,GENERATED VIA SPACE-TRACK.ORG API,2023-06-25T14:26:13,18 SPCS,KSF3-C,2023-001K,EARTH,TEME,UTC,SGP4,2023-06-25T10:02:16.592640,15.17109083,0.000946,97.4761,235.8561,355.1233,4.9906,0,U,55018,999,2631,0.00081967,0.00016221,0,6892.72,94.917,521.105,508.064,PAYLOAD,MEDIUM,LUXE,2023-01-03,AFETR,,3942340,234541986,0 KSF3-C,1 55018U 23001K   23176.41824760  .00016221  00000-0  81967-3 0  9992,2 55018  97.4761 235.8561 0009460 355.1233   4.9906 15.17109083 26311
2,GENERATED VIA SPACE-TRACK.ORG API,2023-06-25T22:26:13,18 SPCS,KSF3-C,2023-001K,EARTH,TEME,UTC,SGP4,2023-06-25T16:22:11.220384,15.17114199,0.0009429,97.476,236.1163,353.9986,6.1133,0,U,55018,999,2635,0.00069895,0.00013819,0,6892.704,94.917,521.069,508.07,PAYLOAD,MEDIUM,LUXE,2023-01-03,AFETR,,3942623,234548727,0 KSF3-C,1 55018U 23001K   23176.68207431  .00013819  00000-0  69895-3 0  9997,2 55018  97.4760 236.1163 0009429 353.9986   6.1133 15.17114199 26352
2,GENERATED VIA SPACE-TRACK.ORG API,2023-06-26T06:26:13,18 SPCS,KSF3-C,2023-001K,EARTH,TEME,UTC,SGP4,2023-06-26T03:27:01.515456,15.17127449,0.0009389,97.476,236.5719,352.1498,7.9586,0,U,55018,999,2642,0.00068263,0.00013499,0,6892.664,94.916,521.001,508.058,PAYLOAD,MEDIUM,LUXE,2023-01-03,AFETR,,3942900,234555670,0 KSF3-C,1 55018U 23001K   23177.14376754  .00013499  00000-0  68263-3 0  9996,2 55018  97.4760 236.5719 0009389 352.1498   7.9586 15.17127449 26428
2,GENERATED VIA SPACE-TRACK.ORG API,2023-06-26T14:26:13,18 SPCS,KSF3-C,2023-001K,EARTH,TEME,UTC,SGP4,2023-06-26T09:46:55.810560,15.17135016,0.0009375,97.476,236.8322,351.0879,9.0186,0,U,55018,999,2646,0.00070302,0.00013908,0,6892.641,94.916,520.968,508.045,PAYLOAD,MEDIUM,LUXE,2023-01-03,AFETR,,3943210,234562811,0 KSF3-C,1 55018U 23001K   23177.40759040  .00013908  00000-0  70302-3 0  9990,2 55018  97.4760 236.8322 0009375 351.0879   9.0186 15.17135016 26469
2,GENERATED VIA SPACE-TRACK.ORG API,2023-06-26T22:36:12,18 SPCS,KSF3-C,2023-001K,EARTH,TEME,UTC,SGP4,2023-06-26T16:06:50.056416,15.17139737,0.0009356,97.476,237.0925,349.9581,10.1464,0,U,55018,999,2650,0.00061175,0.00012092,0,6892.627,94.915,520.941,508.043,PAYLOAD,MEDIUM,LUXE,2023-01-03,AFETR,,3943508,234570549,0 KSF3-C,1 55018U 23001K   23177.67141269  .00012092  00000-0  61175-3 0  9998,2 55018  97.4760 237.0925 0009356 349.9581  10.1464 15.17139737 26507
2,GENERATED VIA SPACE-TRACK.ORG API,2023-06-27T06:36:13,18 SPCS,KSF3-C,2023-001K,EARTH,TEME,UTC,SGP4,2023-06-26T20:51:45.641664,15.1714557,0.0009338,97.4761,237.2878,349.1116,10.9914,0,U,55018,999,2653,0.00064589,0.00012774,0,6892.609,94.915,520.911,508.038,PAYLOAD,MEDIUM,LUXE,2023-01-03,AFETR,,3943778,234576679,0 KSF3-C,1 55018U 23001K   23177.86927826  .00012774  00000-0  64589-3 0  9999,2 55018  97.4761 237.2878 0009338 349.1116  10.9914 15.17145570 26536
2,GENERATED VIA SPACE-TRACK.ORG API,2023-06-27T14:26:13,18 SPCS,KSF3-C,2023-001K,EARTH,TEME,UTC,SGP4,2023-06-27T07:56:35.160864,15.17156379,0.0009306,97.4761,237.7434,347.1466,12.9528,0,U,55018,999,2660,0.00061695,0.00012202,0,6892.577,94.914,520.856,508.028,PAYLOAD,MEDIUM,LUXE,2023-01-03,AFETR,,3944027,234582595,0 KSF3-C,1 55018U 23001K   23178.33096251  .00012202  00000-0  61695-3 0  9992,2 55018  97.4761 237.7434 0009306 347.1466  12.9528 15.17156379 26600
2,GENERATED VIA SPACE-TRACK.ORG API,2023-06-27T22:36:12,18 SPCS,KSF3-C,2023-001K,EARTH,TEME,UTC,SGP4,2023-06-27T19:01:24.398400,15.17167464,0.0009274,97.4763,238.1989,345.1323,14.9636,0,U,55018,999,2667,0.00061355,0.00012138,0,6892.543,94.914,520.8,508.016,PAYLOAD,MEDIUM,LUXE,2023-01-03,AFETR,,3944354,234591138,0 KSF3-C,1 55018U 23001K   23178.79264350  .00012138  00000-0  61355-3 0  9990,2 55018  97.4763 238.1989 0009274 345.1323  14.9636 15.17167464 26672
2,GENERATED VIA SPACE-TRACK.ORG API,2023-06-28T06:26:12,18 SPCS,KSF3-C,2023-001K,EARTH,TEME,UTC,SGP4,2023-06-28T04:31:14.942496,15.17176766,0.0009252,97.4764,238.5894,343.7833,16.3103,0,U,55018,999,2673,0.00058912,0.00011654,0,6892.515,94.913,520.757,508.003,PAYLOAD,MEDIUM,LUXE,2023-01-03,AFETR,,3944627,234597737,0 KSF3-C,1 55018U 23001K   23179.18836739  .00011654  00000-0  58912-3 0  9997,2 55018  97.4764 238.5894 0009252 343.7833  16.3103 15.17176766 26735
